CCSDS_OMM_VERS = 2.0
CREATION_DATE  = 
ORIGINATOR     = 

OBJECT_NAME    = STARLINK-35442
OBJECT_ID      = 2025-253A
CENTER_NAME    = EARTH
REF_FRAME      = TEME
TIME_SYSTEM    = UTC
MEAN_ELEMENT_THEORY = SGP/SGP4

EPOCH          = 2025-12-06T03:39:24.112224
MEAN_MOTION    = 15.40734368
ECCENTRICITY   = .00018248
INCLINATION    = 43.0018
RA_OF_ASC_NODE = 23.8408
ARG_OF_PERICENTER = 263.5430
MEAN_ANOMALY   = 96.5219

EPHEMERIS_TYPE = 0
CLASSIFICATION_TYPE = U
NORAD_CAT_ID   = 66319
ELEMENT_SET_NO = 999
REV_AT_EPOCH   = 590
BSTAR          = .14999447E-2
MEAN_MOTION_DOT = .62944E-3
MEAN_MOTION_DDOT = 0

CCSDS_OMM_VERS = 2.0
CREATION_DATE  = 
ORIGINATOR     = 

OBJECT_NAME    = STARLINK-34616
OBJECT_ID      = 2025-253B
CENTER_NAME    = EARTH
REF_FRAME      = TEME
TIME_SYSTEM    = UTC
MEAN_ELEMENT_THEORY = SGP/SGP4

EPOCH          = 2025-12-06T08:00:01.999872
MEAN_MOTION    = 15.40765936
ECCENTRICITY   = .00011114
INCLINATION    = 43.0007
RA_OF_ASC_NODE = 22.3766
ARG_OF_PERICENTER = 274.3784
MEAN_ANOMALY   = 184.9566

EPHEMERIS_TYPE = 0
CLASSIFICATION_TYPE = U
NORAD_CAT_ID   = 66320
ELEMENT_SET_NO = 999
REV_AT_EPOCH   = 610
BSTAR          = -.48717715E-2
MEAN_MOTION_DOT = -.199024E-2
MEAN_MOTION_DDOT = 0

CCSDS_OMM_VERS = 2.0
CREATION_DATE  = 
ORIGINATOR     = 

OBJECT_NAME    = STARLINK-34615
OBJECT_ID      = 2025-253C
CENTER_NAME    = EARTH
REF_FRAME      = TEME
TIME_SYSTEM    = UTC
MEAN_ELEMENT_THEORY = SGP/SGP4

EPOCH          = 2025-12-06T08:00:01.999872
MEAN_MOTION    = 15.50730305
ECCENTRICITY   = .00013114
INCLINATION    = 43.0001
RA_OF_ASC_NODE = 21.4054
ARG_OF_PERICENTER = 270.0582
MEAN_ANOMALY   = 226.2871

EPHEMERIS_TYPE = 0
CLASSIFICATION_TYPE = U
NORAD_CAT_ID   = 66321
ELEMENT_SET_NO = 999
REV_AT_EPOCH   = 594
BSTAR          = -.53587597E-2
MEAN_MOTION_DOT = -.304438E-2
MEAN_MOTION_DDOT = 0

CCSDS_OMM_VERS = 2.0
CREATION_DATE  = 
ORIGINATOR     = 

OBJECT_NAME    = STARLINK-35292
OBJECT_ID      = 2025-253D
CENTER_NAME    = EARTH
REF_FRAME      = TEME
TIME_SYSTEM    = UTC
MEAN_ELEMENT_THEORY = SGP/SGP4

EPOCH          = 2025-12-06T03:29:43.791072
MEAN_MOTION    = 15.40757627
ECCENTRICITY   = .00007305
INCLINATION    = 42.9998
RA_OF_ASC_NODE = 23.7870
ARG_OF_PERICENTER = 244.8905
MEAN_ANOMALY   = 115.1876

EPHEMERIS_TYPE = 0
CLASSIFICATION_TYPE = U
NORAD_CAT_ID   = 66322
ELEMENT_SET_NO = 999
REV_AT_EPOCH   = 590
BSTAR          = .17324704E-2
MEAN_MOTION_DOT = .729E-3
MEAN_MOTION_DDOT = 0

CCSDS_OMM_VERS = 2.0
CREATION_DATE  = 
ORIGINATOR     = 

OBJECT_NAME    = STARLINK-35309
OBJECT_ID      = 2025-253E
CENTER_NAME    = EARTH
REF_FRAME      = TEME
TIME_SYSTEM    = UTC
MEAN_ELEMENT_THEORY = SGP/SGP4

EPOCH          = 2025-12-05T20:23:32.925696
MEAN_MOTION    = 15.50706336
ECCENTRICITY   = .00023811
INCLINATION    = 42.9977
RA_OF_ASC_NODE = 24.9985
ARG_OF_PERICENTER = 56.0172
MEAN_ANOMALY   = 304.0914

EPHEMERIS_TYPE = 0
CLASSIFICATION_TYPE = U
NORAD_CAT_ID   = 66323
ELEMENT_SET_NO = 999
REV_AT_EPOCH   = 586
BSTAR          = .20443836E-2
MEAN_MOTION_DOT = .122037E-2
MEAN_MOTION_DDOT = 0

CCSDS_OMM_VERS = 2.0
CREATION_DATE  = 
ORIGINATOR     = 

OBJECT_NAME    = STARLINK-35506
OBJECT_ID      = 2025-253F
CENTER_NAME    = EARTH
REF_FRAME      = TEME
TIME_SYSTEM    = UTC
MEAN_ELEMENT_THEORY = SGP/SGP4

EPOCH          = 2025-12-04T04:13:46.495776
MEAN_MOTION    = 15.50596968
ECCENTRICITY   = .00008735
INCLINATION    = 43.0012
RA_OF_ASC_NODE = 34.8030
ARG_OF_PERICENTER = 273.2034
MEAN_ANOMALY   = 86.8726

EPHEMERIS_TYPE = 0
CLASSIFICATION_TYPE = U
NORAD_CAT_ID   = 66324
ELEMENT_SET_NO = 999
REV_AT_EPOCH   = 560
BSTAR          = .2009229E-3
MEAN_MOTION_DOT = .1147E-3
MEAN_MOTION_DDOT = 0

CCSDS_OMM_VERS = 2.0
CREATION_DATE  = 
ORIGINATOR     = 

OBJECT_NAME    = STARLINK-35504
OBJECT_ID      = 2025-253G
CENTER_NAME    = EARTH
REF_FRAME      = TEME
TIME_SYSTEM    = UTC
MEAN_ELEMENT_THEORY = SGP/SGP4

EPOCH          = 2025-12-06T08:00:01.999872
MEAN_MOTION    = 15.40739090
ECCENTRICITY   = .00013733
INCLINATION    = 43.0005
RA_OF_ASC_NODE = 22.4966
ARG_OF_PERICENTER = 251.2578
MEAN_ANOMALY   = 158.2809

EPHEMERIS_TYPE = 0
CLASSIFICATION_TYPE = U
NORAD_CAT_ID   = 66325
ELEMENT_SET_NO = 999
REV_AT_EPOCH   = 590
BSTAR          = -.26720206E-2
MEAN_MOTION_DOT = -.110463E-2
MEAN_MOTION_DDOT = 0

CCSDS_OMM_VERS = 2.0
CREATION_DATE  = 
ORIGINATOR     = 

OBJECT_NAME    = STARLINK-35479
OBJECT_ID      = 2025-253H
CENTER_NAME    = EARTH
REF_FRAME      = TEME
TIME_SYSTEM    = UTC
MEAN_ELEMENT_THEORY = SGP/SGP4

EPOCH          = 2025-12-04T15:00:38.013408
MEAN_MOTION    = 15.50615042
ECCENTRICITY   = .0001415
INCLINATION    = 43.0005
RA_OF_ASC_NODE = 32.1514
ARG_OF_PERICENTER = 287.7439
MEAN_ANOMALY   = 72.3267

EPHEMERIS_TYPE = 0
CLASSIFICATION_TYPE = U
NORAD_CAT_ID   = 66326
ELEMENT_SET_NO = 999
REV_AT_EPOCH   = 567
BSTAR          = .1591E-2
MEAN_MOTION_DOT = .94247E-3
MEAN_MOTION_DDOT = 0

CCSDS_OMM_VERS = 2.0
CREATION_DATE  = 
ORIGINATOR     = 

OBJECT_NAME    = STARLINK-35507
OBJECT_ID      = 2025-253J
CENTER_NAME    = EARTH
REF_FRAME      = TEME
TIME_SYSTEM    = UTC
MEAN_ELEMENT_THEORY = SGP/SGP4

EPOCH          = 2025-12-06T08:00:01.999872
MEAN_MOTION    = 15.50605536
ECCENTRICITY   = .0001456
INCLINATION    = 43.0003
RA_OF_ASC_NODE = 22.1962
ARG_OF_PERICENTER = 277.3379
MEAN_ANOMALY   = 256.4263

EPHEMERIS_TYPE = 0
CLASSIFICATION_TYPE = U
NORAD_CAT_ID   = 66327
ELEMENT_SET_NO = 999
REV_AT_EPOCH   = 599
BSTAR          = -.91907296E-3
MEAN_MOTION_DOT = -.5394E-3
MEAN_MOTION_DDOT = 0

CCSDS_OMM_VERS = 2.0
CREATION_DATE  = 
ORIGINATOR     = 

OBJECT_NAME    = STARLINK-35460
OBJECT_ID      = 2025-253K
CENTER_NAME    = EARTH
REF_FRAME      = TEME
TIME_SYSTEM    = UTC
MEAN_ELEMENT_THEORY = SGP/SGP4

EPOCH          = 2025-12-06T08:00:01.999872
MEAN_MOTION    = 15.40738435
ECCENTRICITY   = .00013632
INCLINATION    = 43.0005
RA_OF_ASC_NODE = 22.4635
ARG_OF_PERICENTER = 270.5902
MEAN_ANOMALY   = 151.3865

EPHEMERIS_TYPE = 0
CLASSIFICATION_TYPE = U
NORAD_CAT_ID   = 66328
ELEMENT_SET_NO = 999
REV_AT_EPOCH   = 599
BSTAR          = -.23981604E-2
MEAN_MOTION_DOT = -.99314E-3
MEAN_MOTION_DDOT = 0

CCSDS_OMM_VERS = 2.0
CREATION_DATE  = 
ORIGINATOR     = 

OBJECT_NAME    = STARLINK-35505
OBJECT_ID      = 2025-253L
CENTER_NAME    = EARTH
REF_FRAME      = TEME
TIME_SYSTEM    = UTC
MEAN_ELEMENT_THEORY = SGP/SGP4

EPOCH          = 2025-12-05T20:25:59.154240
MEAN_MOTION    = 15.50829016
ECCENTRICITY   = .00016573
INCLINATION    = 43.0002
RA_OF_ASC_NODE = 25.0138
ARG_OF_PERICENTER = 320.9763
MEAN_ANOMALY   = 39.0978

EPHEMERIS_TYPE = 0
CLASSIFICATION_TYPE = U
NORAD_CAT_ID   = 66329
ELEMENT_SET_NO = 999
REV_AT_EPOCH   = 586
BSTAR          = .32245979E-2
MEAN_MOTION_DOT = .195359E-2
MEAN_MOTION_DDOT = 0

CCSDS_OMM_VERS = 2.0
CREATION_DATE  = 
ORIGINATOR     = 

OBJECT_NAME    = STARLINK-35512
OBJECT_ID      = 2025-253M
CENTER_NAME    = EARTH
REF_FRAME      = TEME
TIME_SYSTEM    = UTC
MEAN_ELEMENT_THEORY = SGP/SGP4

EPOCH          = 2025-12-06T03:23:16.526400
MEAN_MOTION    = 15.40745181
ECCENTRICITY   = .00007198
INCLINATION    = 42.9964
RA_OF_ASC_NODE = 23.7494
ARG_OF_PERICENTER = 267.2763
MEAN_ANOMALY   = 92.8011

EPHEMERIS_TYPE = 0
CLASSIFICATION_TYPE = U
NORAD_CAT_ID   = 66330
ELEMENT_SET_NO = 999
REV_AT_EPOCH   = 590
BSTAR          = .16266166E-2
MEAN_MOTION_DOT = .68358E-3
MEAN_MOTION_DDOT = 0

