STARLINK-35442          
1 66319U 25253A   25340.15236241  .00062944  00000+0  14999-2 0  9998
2 66319  43.0018  23.8408 0001824 263.5430  96.5219 15.40734368  5903
STARLINK-34616          
1 66320U 25253B   25340.33335648 -.00199024  00000+0 -48718-2 0  9999
2 66320  43.0007  22.3766 0001111 274.3784 184.9566 15.40765936  6100
STARLINK-34615          
1 66321U 25253C   25340.33335648 -.00304438  00000+0 -53588-2 0  9998
2 66321  43.0001  21.4054 0001311 270.0582 226.2871 15.50730305  5949
STARLINK-35292          
1 66322U 25253D   25340.14564573  .00072900  00000+0  17325-2 0  9992
2 66322  42.9998  23.7870 0000730 244.8905 115.1876 15.40757627  5908
STARLINK-35309          
1 66323U 25253E   25339.84968664  .00122037  00000+0  20444-2 0  9990
2 66323  42.9977  24.9985 0002381  56.0172 304.0914 15.50706336  5868
STARLINK-35506          
1 66324U 25253F   25338.17623259  .00011470  00000+0  20092-3 0  9992
2 66324  43.0012  34.8030 0000873 273.2034  86.8726 15.50596968  5602
STARLINK-35504          
1 66325U 25253G   25340.33335648 -.00110463  00000+0 -26720-2 0  9993
2 66325  43.0005  22.4966 0001373 251.2578 158.2809 15.40739090  5904
STARLINK-35479          
1 66326U 25253H   25338.62543997  .00094247  00000+0  15910-2 0  9999
2 66326  43.0005  32.1514 0001415 287.7439  72.3267 15.50615042  5678
STARLINK-35507          
1 66327U 25253J   25340.33335648 -.00053940  00000+0 -91907-3 0  9991
2 66327  43.0003  22.1962 0001456 277.3379 256.4263 15.50605536  5999
STARLINK-35460          
1 66328U 25253K   25340.33335648 -.00099314  00000+0 -23982-2 0  9994
2 66328  43.0005  22.4635 0001363 270.5902 151.3865 15.40738435  5991
STARLINK-35505          
1 66329U 25253L   25339.85137910  .00195359  00000+0  32246-2 0  9999
2 66329  43.0002  25.0138 0001657 320.9763  39.0978 15.50829016  5867
STARLINK-35512          
1 66330U 25253M   25340.14116350  .00068358  00000+0  16266-2 0  9992
2 66330  42.9964  23.7494 0000719 267.2763  92.8011 15.40745181  5904
